[{"OBJECT_NAME":"KUWAITSAT-1","OBJECT_ID":"2023-001CY","EPOCH":"2026-03-09T18:03:29.196000","MEAN_MOTION":15.45271031,"ECCENTRICITY":0.00102534,"INCLINATION":97.3347,"RA_OF_ASC_NODE":138.265,"ARG_OF_PERICENTER":82.11,"MEAN_ANOMALY":278.1312,"EPHEMERIS_TYPE":0,"CLASSIFICATION_TYPE":"U","NORAD_CAT_ID":55103,"ELEMENT_SET_NO":999,"REV_AT_EPOCH":17721,"BSTAR":0.00049716234,"MEAN_MOTION_DOT":0.00023651,"MEAN_MOTION_DDOT":0},{"OBJECT_NAME":"STARLINK-34379","OBJECT_ID":"2025-123M","EPOCH":"2026-03-09T16:18:28.587456","MEAN_MOTION":15.42688332,"ECCENTRICITY":0.00021053,"INCLINATION":70.0035,"RA_OF_ASC_NODE":164.9522,"ARG_OF_PERICENTER":264.6455,"MEAN_ANOMALY":95.4487,"EPHEMERIS_TYPE":0,"CLASSIFICATION_TYPE":"U","NORAD_CAT_ID":64302,"ELEMENT_SET_NO":999,"REV_AT_EPOCH":4235,"BSTAR":0.0010993501,"MEAN_MOTION_DOT":0.00048253,"MEAN_MOTION_DDOT":0}]
